STARLINK-1189
1 25221C 20012AV  21325.11490318  .00009234  00000-0  61876-3 0  3251
2 25221  53.0527 212.7193 0001773  74.2478  80.4999 15.06385693    19
